stk.v.11.0

# WrittenBy    STK_v11.7.1

BEGIN Ephemeris

    NumberOfEphemerisPoints		 2552

    ScenarioEpoch		 16 Jul 2020 03:40:48.000000

# Epoch in JDate format: 2459046.65333333333333
# Epoch in YYDDD format:   20198.15333333333333


    InterpolationMethod		 Lagrange

    InterpolationSamplesM1		 7

    CentralBody		 Earth

    CoordinateSystem		 ICRF

# Time of first point: 16 Jul 2020 03:40:48.000000000 UTCG = 2459046.65333333333333 JDate = 20198.15333333333333 YYDDD

    EphemerisTimePosVel		

 3.6094272999999463e+04  2.2542043690597722e+06 -2.0636329649607965e+06 -5.7940520566607388e+06  3.3370826871715221e+03 -6.1308620993866152e+03  3.4736389182356984e+03
 3.6149447999999466e+04  2.4333538379881303e+06 -2.3972280670235613e+06 -5.5900471454056893e+06  3.1544486004281603e+03 -5.9570561656291929e+03  3.9185524285151296e+03
 3.6212918999999463e+04  2.6264621754213930e+06 -2.7681546952583431e+06 -5.3256276088310173e+06  2.9275867462252286e+03 -5.7254582395015268e+03  4.4094894219391635e+03
 3.6266377999999466e+04  2.7775634789878023e+06 -3.0684409212433067e+06 -5.0792810590058379e+06  2.7234811959087983e+03 -5.5050144901508320e+03  4.8036976749703017e+03
 3.6319895999999462e+04  2.9176024397315937e+06 -3.3566531576163182e+06 -4.8120651465386590e+06  2.5080851686674032e+03 -5.2620074411751502e+03  5.1789605621560886e+03
 3.6371739999999460e+04  3.0420099050737480e+06 -3.6229107858536760e+06 -4.5345728663756242e+06  2.2896870535628263e+03 -5.0062215641483108e+03  5.5225489538975453e+03
 3.6425055999999458e+04  3.1578955248169568e+06 -3.8823670882925303e+06 -4.2311946994034899e+06  2.0559709082650429e+03 -4.7232817174177808e+03  5.8540222749708319e+03
 3.6482052999999461e+04  3.2677401173950769e+06 -4.1424603386129774e+06 -3.8880448739589830e+06  1.7969410278891644e+03 -4.3997693761889641e+03  6.1823462192838979e+03
 3.6540960999999465e+04  3.3654922778215352e+06 -4.3912684883245332e+06 -3.5145872865630747e+06  1.5204973181189921e+03 -4.0441072664613271e+03  6.4918144350102257e+03
 3.6597315999999468e+04  3.4435584511219463e+06 -4.6091424775099121e+06 -3.1410992247088575e+06  1.2489699542561684e+03 -3.6851819678574852e+03  6.7580497899648572e+03
 3.6658243999999468e+04  3.5105492354777055e+06 -4.8213767178734411e+06 -2.7214348739890759e+06  9.4907164731976809e+02 -3.2784773644679522e+03  7.0116560235000888e+03
 3.6711093999999466e+04  3.5537385779110966e+06 -4.9850039420221662e+06 -2.3457201542330654e+06  6.8479588465407573e+02 -2.9116109720984464e+03  7.2018036746880789e+03
 3.6763863999999463e+04  3.5828504427523646e+06 -5.1287277851142138e+06 -1.9612959769602637e+06  4.1818591348107498e+02 -2.5337735259543801e+03  7.3631980599992376e+03
 3.6816312999999463e+04  3.5977961167242508e+06 -5.2515529833064042e+06 -1.5715259668337060e+06  1.5153823582491196e+02 -2.1483071941906501e+03  7.4947843627993361e+03
 3.6867227999999464e+04  3.5989074354467532e+06 -5.3512341368039064e+06 -1.1872718030773164e+06 -1.0789876554680751e+02 -1.7660853402240118e+03  7.5945319936386568e+03
 3.6919488999999463e+04  3.5863169945857082e+06 -5.4331305344203450e+06 -7.8832928716686554e+05 -3.7377451454670796e+02 -1.3670369787721002e+03  7.6678457505353899e+03
 3.6972270999999462e+04  3.5595319439062201e+06 -5.4945283572705900e+06 -3.8231351565983385e+05 -6.4082038147408866e+02 -9.5867141113248135e+02  7.7117115268558800e+03
 3.7029243999999460e+04  3.5148763952471437e+06 -5.5364877520011580e+06  5.7588528648229490e+04 -9.2617728658051533e+02 -5.1373094242677735e+02  7.7248316921320702e+03
 3.7088842999999462e+04  3.4508922811602466e+06 -5.5531698771013515e+06  5.1744827373144752e+05 -1.2200682366716146e+03 -4.5860455037921781e+01  7.7004779563427492e+03
 3.7146484999999462e+04  3.3725113001673082e+06 -5.5427627055265913e+06  9.5975022901445581e+05 -1.4984340157789413e+03  4.0679790496324932e+02  7.6400091305435508e+03
 3.7198748999999465e+04  3.2877337719761888e+06 -5.5108101919570658e+06  1.3569298761700499e+06 -1.7447144439186156e+03  8.1552620886638317e+02  7.5540618646852308e+03
 3.7246797999999464e+04  3.1985815876857033e+06 -5.4626520951581299e+06  1.7174750386031154e+06 -1.9651524764258465e+03  1.1884530202627379e+03  7.4492419976335086e+03
 3.7296821999999462e+04  3.0946779180977768e+06 -5.3935752633181205e+06  2.0868484328974725e+06 -2.1877645691022344e+03  1.5724610797618748e+03  7.3142441944775792e+03
 3.7344612999999459e+04  2.9851847323327428e+06 -5.3097626915270332e+06  2.4328365604500738e+06 -2.3931593852368205e+03  1.9340385120115893e+03  7.1610735763828561e+03
 3.7391698999999462e+04  2.8678845229836800e+06 -5.2104294073872566e+06  2.7660245160873653e+06 -2.5879105775932808e+03  2.2840682180804711e+03  6.9875451998486024e+03
 3.7441595999999459e+04  2.7337898726030490e+06 -5.0873691726976810e+06  3.1095995496771373e+06 -2.7853601886468791e+03  2.6470339478123128e+03  6.7797904807585746e+03
 3.7496549999999457e+04  2.5750055201258538e+06 -4.9311653330328939e+06  3.4752625851305672e+06 -2.9913811769582453e+03  3.0358122223490518e+03  6.5234531942216690e+03
 3.7549243999999460e+04  2.4124367165928711e+06 -4.7616420176459076e+06  3.8119558931418690e+06 -3.1768875718314289e+03  3.3963160305131314e+03  6.2515701822116007e+03
 3.7603051999999458e+04  2.2366858199708122e+06 -4.5692965304708593e+06  4.1403043408344067e+06 -3.3533955023264107e+03  3.7505525284179575e+03  5.9487319281108375e+03
 3.7654752999999459e+04  2.0592067513767548e+06 -4.3669024801431326e+06  4.4398413255715966e+06 -3.5100318748499130e+03  4.0763701823801562e+03  5.6349206879078520e+03
 3.7701584999999461e+04  1.8917273137854668e+06 -4.1693480612239456e+06  4.6967173764085909e+06 -3.6404682704689612e+03  4.3581674869426133e+03  5.3323707205789578e+03
 3.7748033999999461e+04  1.7198421238789472e+06 -3.9606824160317183e+06  4.9371155529027618e+06 -3.7586770323802780e+03  4.6242602500250632e+03  5.0160778757203061e+03
 3.7795036999999458e+04  1.5405894554623298e+06 -3.7372803478760505e+06  5.1650602699664459e+06 -3.8666249466659110e+03  4.8791237878277670e+03  4.6805755686893272e+03
 3.7845318999999457e+04  1.3435419143547842e+06 -3.4854438781846547e+06  5.3910499796506017e+06 -3.9687403783452287e+03  5.1348523140171801e+03  4.3056637323113773e+03
 3.7899933999999455e+04  1.1241216361893518e+06 -3.1978864814949720e+06  5.6146914419732401e+06 -4.0636078824270298e+03  5.3917926677381301e+03  3.8812334412152268e+03
 3.7955015999999458e+04  8.9805090975133562e+05 -2.8942840430669035e+06  5.8163083396836715e+06 -4.1419821525396101e+03  5.6279257472044064e+03  3.4367888476887138e+03
 3.8009641999999454e+04  6.7006558350859326e+05 -2.5809965504853926e+06  5.9916757582532028e+06 -4.2022316779503253e+03  5.8383225167625815e+03  2.9816391090442971e+03
 3.8062739999999452e+04  4.4575533348253265e+05 -2.2660838583185794e+06  6.1379806384511553e+06 -4.2438907598309279e+03  6.0193163733565798e+03  2.5273031235386447e+03
 3.8115264999999454e+04  2.2212505225594487e+05 -1.9457307181276849e+06  6.2587057330930848e+06 -4.2685506418351388e+03  6.1748569084168885e+03  2.0680841376342960e+03
 3.8167332999999453e+04 -4.1169744839909254e+02 -1.6207164901572168e+06  6.3543609009882677e+06 -4.2766625861061621e+03  6.3053976071443276e+03  1.6049965558475531e+03
 3.8199895999999455e+04 -1.3963774241947345e+05 -1.4142373768403875e+06  6.4018628329500444e+06 -4.2734561001309758e+03  6.3748505579844532e+03  1.3121833887047535e+03
 3.8231242999999457e+04 -2.7347052190054057e+05 -1.2134745715830801e+06  6.4385531398380399e+06 -4.2643548172020892e+03  6.4327353110173435e+03  1.0284618304554565e+03
 3.8281551999999458e+04 -4.8739256730158033e+05 -8.8788452374795964e+05  6.4787816464652745e+06 -4.2374496670006438e+03  6.5070385281310610e+03  5.7032175786525795e+02
 3.8331684999999459e+04 -6.9884312925306556e+05 -5.6029160695891175e+05  6.4958841466950057e+06 -4.1956512111730917e+03  6.5580684466371331e+03  1.1176012759502089e+02
 3.8381668999999456e+04 -9.0720939362161909e+05 -2.3170148260338965e+05  6.4900320270587020e+06 -4.1392272922148795e+03  6.5858972553691647e+03 -3.4585702186492409e+02
 3.8426996999999457e+04 -1.0934324882174425e+06  6.7014969056490925e+04  6.4649657961969823e+06 -4.0754856711784023e+03  6.5911486611687860e+03 -7.5987677002623241e+02
 3.8473322999999458e+04 -1.2804897693073619e+06  3.7210210509793152e+05  6.4200031548136026e+06 -3.9981753901450588e+03  6.5768533428632982e+03 -1.1807856104111522e+03
 3.8518729999999458e+04 -1.4600919378092380e+06  6.7005398623353546e+05  6.3570826185736656e+06 -3.9106811712621825e+03  6.5435850433648966e+03 -1.5899583500467636e+03
 3.8568215999999455e+04 -1.6509917954320875e+06  9.9253078258697502e+05  6.2674717990416680e+06 -3.8024076427449568e+03  6.4857238423185972e+03 -2.0306808191635412e+03
 3.8625779999999453e+04 -1.8658577496458108e+06  1.3632730824154662e+06  6.1360244375357637e+06 -3.6599731147907287e+03  6.3903143483603753e+03 -2.5345667060460232e+03
 3.8687060999999456e+04 -2.0850196819279105e+06  1.7509331063139776e+06  5.9645872923461590e+06 -3.4895526497952133e+03  6.2559875107445741e+03 -3.0581143288465569e+03
 3.8742290999999459e+04 -2.2731350002325578e+06  2.0924463772766071e+06  5.7829690409437148e+06 -3.3200678513672819e+03  6.1065235705867999e+03 -3.5163532090568929e+03
 3.8802031999999461e+04 -2.4656029812329821e+06  2.4516944369981019e+06  5.5585041610708814e+06 -3.1206303948423129e+03  5.9152740188982989e+03 -3.9951293763544290e+03
 3.8862567999999461e+04 -2.6479883082145057e+06  2.8031465756388810e+06  5.3024759936939413e+06 -2.9024385211128674e+03  5.6910518867003384e+03 -4.4599685762955251e+03
 3.8922030999999464e+04 -2.8138358084205077e+06  3.1342890142851076e+06  5.0242436704616752e+06 -2.6733972018787090e+03  5.4420622265176899e+03 -4.8943384593712562e+03
 3.8983496999999465e+04 -2.9705185739570223e+06  3.4601458638606421e+06  4.7102539770422252e+06 -2.4225061309351404e+03  5.1560318970515355e+03 -5.3178465633684373e+03
END Ephemeris
